[
  {
    "id": "b8b0d147",
    "name": "Alligator Lounge",
    "street_address": "600 Metropolitan Ave",
    "city": "Brooklyn",
    "state": "NY",
    "zip_code": "11211",
    "borough": "brooklyn",
    "entry_accessible": true
  },
  {
    "id": "fc700c55",
    "name": "Black Cat LES",
    "street_address": "172 Rivington St",
    "city": "New York",
    "state": "NY",
    "zip_code": "10002",
    "borough": "manhattan"
  },
  {
    "id": "6d2f9589",
    "name": "Branded Saloon",
    "street_address": "603 Vanderbilt Ave",
    "city": "Brooklyn",
    "state": "NY",
    "zip_code": "11238",
    "borough": "brooklyn",
    "entry_accessible": true
  },
  {
    "id": "249e91d1",
    "name": "Brooklyn Comedey Collective",
    "street_address": "167 Graham Ave @Eris",
    "city": "Brooklyn",
    "state": "NY",
    "zip_code": "11206",
    "borough": "brooklyn",
    "entry_accessible": true
  },
  {
    "id": "16521ede",
    "name": "Crystal Lake",
    "street_address": "647 Grand St",
    "city": "Brooklyn",
    "state": "NY",
    "zip_code": "11211",
    "borough": "brooklyn",
    "entry_accessible": true
  },
  {
    "id": "479d5151",
    "name": "Eastville Comedy Club",
    "street_address": "487 Atlantic Ave",
    "city": "Brooklyn",
    "state": "NY",
    "zip_code": "11217",
    "borough": "brooklyn"
  },
  {
    "id": "e3d2d201",
    "name": "Easy Lover",
    "street_address": "790 Metropolitan Ave",
    "city": "Brooklyn",
    "state": "NY",
    "zip_code": "11211",
    "borough": "brooklyn",
    "entry_accessible": true
  },
  {
    "id": "6c175eea",
    "name": "Fiction Cafe/Bar",
    "street_address": "308 Hooper St",
    "city": "Brooklyn",
    "state": "NY",
    "zip_code": "11211",
    "borough": "brooklyn",
    "entry_accessible": true
  },
  {
    "id": "25f98f3e",
    "name": "Footlight Presents",
    "street_address": "552 Grandview Ave",
    "city": "Queens",
    "state": "NY",
    "zip_code": "11385",
    "borough": "queens"
  },
  {
    "id": "66322736",
    "name": "Freddy's Bar",
    "street_address": "627 5th Ave",
    "city": "Brooklyn",
    "state": "NY",
    "zip_code": "11215",
    "borough": "brooklyn",
    "entry_accessible": true
  },
  {
    "id": "7877021b",
    "name": "Grounded Cafe",
    "street_address": "198 5th Ave",
    "city": "Brooklyn",
    "state": "NY",
    "zip_code": "11217",
    "borough": "brooklyn",
    "entry_accessible": true,
    "stage_accessible": true
  },
  {
    "id": "e04a353b",
    "name": "Halyards",
    "street_address": "406 3rd Ave",
    "city": "Brooklyn",
    "state": "NY",
    "zip_code": "11215",
    "borough": "brooklyn",
    "entry_accessible": true
  },
  {
    "id": "8d6c3ce2",
    "name": "Mood Ring",
    "street_address": "1260 Myrtle Ave",
    "city": "Brooklyn",
    "state": "NY",
    "zip_code": "11221",
    "borough": "brooklyn"
  },
  {
    "id": "21df7706",
    "name": "Pete's Candy Store",
    "street_address": "709 Lorimer St",
    "city": "Brooklyn",
    "state": "NY",
    "zip_code": "11211",
    "borough": "brooklyn",
    "entry_accessible": true
  },
  {
    "id": "e62a59df",
    "name": "Pine Box Rock Shop",
    "street_address": "12 Grattan St",
    "city": "Brooklyn",
    "state": "NY",
    "zip_code": "11206",
    "borough": "brooklyn",
    "entry_accessible": true
  },
  {
    "id": "1a389b53",
    "name": "Secret Pour",
    "street_address": "1114 Dekalb Ave",
    "city": "Brooklyn",
    "state": "NY",
    "zip_code": "11221",
    "borough": "brooklyn",
    "entry_accessible": true
  },
  {
    "id": "b4676936",
    "name": "Stand Up NY",
    "street_address": "236 W 78th St",
    "city": "New York",
    "state": "NY",
    "zip_code": "10024",
    "borough": "manhattan"
  },
  {
    "id": "492dc04d",
    "name": "The Cobra Club",
    "street_address": "6 Wyckoff Ave",
    "city": "Brooklyn",
    "state": "NY",
    "zip_code": "11237",
    "borough": "brooklyn",
    "entry_accessible": true
  },
  {
    "id": "834d99f7",
    "name": "The Hop Shop",
    "street_address": "121 Columbia St",
    "city": "Brooklyn",
    "state": "NY",
    "zip_code": "11231",
    "borough": "brooklyn",
    "entry_accessible": true
  },
  {
    "id": "24ded3c0",
    "name": "The Tiny Cupboard",
    "street_address": "10 Cooper St",
    "city": "Brooklyn",
    "state": "NY",
    "zip_code": "11207",
    "borough": "brooklyn",
    "entry_accessible": true
  },
  {
    "id": "28d4ab5e",
    "name": "Bushwick Public House",
    "street_address": "1288 Myrtle Ave",
    "city": "Brooklyn",
    "state": "NY",
    "zip_code": "11221",
    "borough": "brooklyn",
    "entry_accessible": true
  },
  {
    "id": "1c336fdc",
    "name": "Rodney's Comedy Club",
    "street_address": "1118 1st Ave",
    "city": "New York",
    "state": "NY",
    "zip_code": "10065",
    "borough": "manhattan"
  },
  {
    "id": "83f87e0a",
    "name": "Logan's Run",
    "street_address": "375a 5th Ave",
    "city": "Brooklyn",
    "state": "NY",
    "zip_code": "11215",
    "borough": "brooklyn"
  },
  {
    "id": "e2ac695d",
    "name": "Flop House Comedy Club",
    "street_address": "362 Grand St",
    "city": "Brooklyn",
    "state": "NY",
    "zip_code": "11211",
    "borough": "brooklyn"
  },
  {
    "id": "8937b38b",
    "name": "Endless Life Brewery",
    "street_address": "585 Franklin Ave",
    "city": "Brooklyn",
    "state": "NY",
    "zip_code": "11238",
    "borough": "brooklyn",
    "entry_accessible": true
  }
]
